ONEWEB-0379             
1 49305U 21090AC  24356.16581500 -.00000031  00000+0 -11708-3 0  9994
2 49305  87.9000  37.6861 0001830  95.6504 264.4835 13.14502541157527
ONEWEB-0380             
1 49306U 21090AD  24356.18525314 -.00000205  00000+0 -54445-3 0  9996
2 49306  87.9174  52.9441 0001880 100.1733 259.9612 13.19726213156086
ONEWEB-0381             
1 49307U 21090AE  24356.51243613 -.00000013  00000+0 -63402-4 0  9994
2 49307  87.9248  22.4069 0002009  97.0684 263.0678 13.20771476159499
ONEWEB-0382             
1 49308U 21090AF  24356.49980473 -.00000122  00000+0 -33168-3 0  9990
2 49308  87.9249  22.4051 0002130  84.9705 275.1672 13.20771386159494
ONEWEB-0383             
1 49309U 21090AG  24356.15946113 -.00000293  00000+0 -82402-3 0  9991
2 49309  87.8998  37.6715 0001844  90.7729 269.3611 13.14502271157542
ONEWEB-0384             
1 49310U 21090AH  24356.49664948 -.00000099  00000+0 -27506-3 0  9991
2 49310  87.9252  22.4201 0002153  82.8757 277.2621 13.20771058159502
ONEWEB-0385             
1 49311U 21090AJ  24356.11313226  .00000008  00000+0 -12646-4 0  9990
2 49311  87.9253  22.4972 0001940  90.5810 269.5546 13.20771874159436
ONEWEB-0386             
1 49312U 21090AK  24356.50928291 -.00000268  00000+0 -69156-3 0  9994
2 49312  87.9244  22.4010 0002152  94.2977 265.8402 13.20771424159498
